ONEWEB-0410             
1 51622U 22012A   23259.96117478  .00000180  00000+0  42990-3 0  9992
2 51622  87.9169 205.4361 0000783  94.4364 265.6857 13.17650602 82748
ONEWEB-0411             
1 51623U 22012B   23259.68298455 -.00000668  00000+0 -19509-2 0  9999
2 51623  87.8840 235.7233 0001874  73.1502 286.9831 13.10378444 79016
ONEWEB-0415             
1 51624U 22012C   23259.67975080  .00000103  00000+0  25808-3 0  9997
2 51624  87.8842 235.7508 0001949  72.0365 288.0975 13.10372540 79015
ONEWEB-0416             
1 51625U 22012D   23259.46206976  .00000946  00000+0  26730-2 0  9995
2 51625  87.8839 235.7811 0002015  83.4369 276.6988 13.10371801 77748
ONEWEB-0422             
1 51626U 22012E   23259.96961409  .00000087  00000+0  19150-3 0  9995
2 51626  87.9165 205.4304 0002742  86.9448 273.1997 13.17646020 82840
ONEWEB-0423             
1 51627U 22012F   23259.35580263  .00000167  00000+0  39742-3 0  9992
2 51627  87.9229 205.5007 0001973  78.6502 281.4852 13.17651009 81379
ONEWEB-0425             
1 51628U 22012G   23260.00631538  .00000571  00000+0  16002-2 0  9991
2 51628  87.8832 235.6656 0001733  98.8203 261.3121 13.10370868 79107
ONEWEB-0428             
1 51629U 22012H   23259.98679062 -.00001318  00000+0 -38116-2 0  9993
2 51629  87.8841 235.6806 0002331  81.9706 278.1686 13.10379920 79055
